SITRO-AIS 26            
1 59067U 24039S   24129.85935719  .00006095  00000+0  58791-3 0  9992
2 59067  95.4024  70.7408 0175524 117.8520 244.0607 14.82108680 10289
SITRO-AIS 27            
1 59068U 24039T   24129.85401048  .00006473  00000+0  62252-3 0  9993
2 59068  95.4026  70.7478 0175272 117.7313 244.1807 14.82235689 10281
SITRO-AIS 28            
1 59071U 24039U   24129.85240625  .00006538  00000+0  62841-3 0  9995
2 59071  95.4027  70.7501 0175149 117.7284 244.1825 14.82265626 10287
